start=new Date('2023-06-18T00:00:00.000Z').valueOf();
sats=[{"TIME_SYSTEM":"UTC","OBJECT_NAME":"STARLINK-5888","TLE_LINE1":"1 56348U 23058AH  23168.91668981  .00033278  00000-0  25842-2 0  9998","EPHEMERIS_TYPE":"0","MEAN_MOTION_DDOT":"0.0000000000000","LAUNCH_DATE":"2023-04-27","COUNTRY_CODE":"US","GP_ID":"234175675","DECAY_DATE":null,"RCS_SIZE":"LARGE","ELEMENT_SET_NO":"999","SEMIMAJOR_AXIS":"6941.189","RA_OF_ASC_NODE":"170.0119","OBJECT_ID":"2023-058AH","REF_FRAME":"TEME","PERIAPSIS":"562.031","MEAN_MOTION":"15.01246401","SITE":"AFWTR","MEAN_ELEMENT_THEORY":"SGP4","ECCENTRICITY":"0.00014730","APOAPSIS":"564.076","CENTER_NAME":"EARTH","EPOCH":"2023-06-17T22:00:01.999584","FILE":"3935891","INCLINATION":"97.6522","REV_AT_EPOCH":"130","MEAN_ANOMALY":"278.5168","CLASSIFICATION_TYPE":"U","PERIOD":"95.920","ARG_OF_PERICENTER":"92.3501","TLE_LINE2":"2 56348  97.6522 170.0119 0001473  92.3501 278.5168 15.01246401  1308","MEAN_MOTION_DOT":"0.00033278","OBJECT_TYPE":"PAYLOAD","BSTAR":"0.00258420000000","NORAD_CAT_ID":"56348"},{"REF_FRAME":"TEME","PERIAPSIS":"559.199","DECAY_DATE":null,"RCS_SIZE":"LARGE","ELEMENT_SET_NO":"999","SEMIMAJOR_AXIS":"6939.026","RA_OF_ASC_NODE":"169.6913","OBJECT_ID":"2023-058AJ","EPHEMERIS_TYPE":"0","MEAN_MOTION_DDOT":"0.0000000000000","LAUNCH_DATE":"2023-04-27","COUNTRY_CODE":"US","GP_ID":"234175735","TIME_SYSTEM":"UTC","OBJECT_NAME":"STARLINK-5887","TLE_LINE1":"1 56349U 23058AJ  23168.57269089 -.00114673  00000-0 -89058-2 0  9997","ARG_OF_PERICENTER":"68.9814","MEAN_MOTION_DOT":"-0.00114673","TLE_LINE2":"2 56349  97.6526 169.6913 0002439  68.9814 291.1671 15.01948303  8686","OBJECT_TYPE":"PAYLOAD","BSTAR":"-0.00890580000000","NORAD_CAT_ID":"56349","PERIOD":"95.875","APOAPSIS":"562.583","EPOCH":"2023-06-17T13:44:40.492896","CENTER_NAME":"EARTH","FILE":"3935891","INCLINATION":"97.6526","REV_AT_EPOCH":"868","MEAN_ANOMALY":"291.1671","CLASSIFICATION_TYPE":"U","SITE":"AFWTR","MEAN_MOTION":"15.01948303","MEAN_ELEMENT_THEORY":"SGP4","ECCENTRICITY":"0.00024390"},{"ELEMENT_SET_NO":"999","DECAY_DATE":null,"RCS_SIZE":"LARGE","SEMIMAJOR_AXIS":"6939.167","OBJECT_ID":"2023-058AK","RA_OF_ASC_NODE":"169.6876","REF_FRAME":"TEME","PERIAPSIS":"559.847","OBJECT_NAME":"STARLINK-5886","TIME_SYSTEM":"UTC","TLE_LINE1":"1 56350U 23058AK  23168.57603442 -.00116216  00000-0 -90390-2 0  9990","LAUNCH_DATE":"2023-04-27","EPHEMERIS_TYPE":"0","MEAN_MOTION_DDOT":"0.0000000000000","GP_ID":"234175616","COUNTRY_CODE":"US","PERIOD":"95.878","TLE_LINE2":"2 56350  97.6538 169.6876 0001709  87.1114 273.0306 15.01902383  8686","MEAN_MOTION_DOT":"-0.00116216","ARG_OF_PERICENTER":"87.1114","BSTAR":"-0.00903900000000","NORAD_CAT_ID":"56350","OBJECT_TYPE":"PAYLOAD","MEAN_ELEMENT_THEORY":"SGP4","MEAN_MOTION":"15.01902383","SITE":"AFWTR","ECCENTRICITY":"0.00017090","EPOCH":"2023-06-17T13:49:29.373888","CENTER_NAME":"EARTH","FILE":"3935891","INCLINATION":"97.6538","APOAPSIS":"562.218","MEAN_ANOMALY":"273.0306","CLASSIFICATION_TYPE":"U","REV_AT_EPOCH":"868"},{"TLE_LINE1":"1 56351U 23058AL  23168.83334491  .00022894  00000-0  17819-2 0  9996","OBJECT_NAME":"STARLINK-5891","TIME_SYSTEM":"UTC","GP_ID":"234142576","COUNTRY_CODE":"US","LAUNCH_DATE":"2023-04-27","MEAN_MOTION_DDOT":"0.0000000000000","EPHEMERIS_TYPE":"0","OBJECT_ID":"2023-058AL","RA_OF_ASC_NODE":"169.9510","SEMIMAJOR_AXIS":"6941.193","ELEMENT_SET_NO":"999","RCS_SIZE":"LARGE","DECAY_DATE":null,"PERIAPSIS":"561.849","REF_FRAME":"TEME","ECCENTRICITY":"0.00017420","MEAN_ELEMENT_THEORY":"SGP4","MEAN_MOTION":"15.01245000","SITE":"AFWTR","MEAN_ANOMALY":"239.4906","CLASSIFICATION_TYPE":"U","REV_AT_EPOCH":"823","FILE":"3935634","INCLINATION":"97.6519","EPOCH":"2023-06-17T20:00:01.000224","CENTER_NAME":"EARTH","APOAPSIS":"564.267","PERIOD":"95.920","NORAD_CAT_ID":"56351","BSTAR":"0.00178190000000","OBJECT_TYPE":"PAYLOAD","TLE_LINE2":"2 56351  97.6519 169.9510 0001742  91.2322 239.4906 15.01245000  8237","MEAN_MOTION_DOT":"0.00022894","ARG_OF_PERICENTER":"91.2322"},{"OBJECT_NAME":"STARLINK-5885","TIME_SYSTEM":"UTC","TLE_LINE1":"1 56352U 23058AM  23168.57785805 -.00108589  00000-0 -84449-2 0  9998","LAUNCH_DATE":"2023-04-27","MEAN_MOTION_DDOT":"0.0000000000000","EPHEMERIS_TYPE":"0","GP_ID":"234175916","COUNTRY_CODE":"US","ELEMENT_SET_NO":"999","RCS_SIZE":"LARGE","DECAY_DATE":null,"RA_OF_ASC_NODE":"169.6854","OBJECT_ID":"2023-058AM","SEMIMAJOR_AXIS":"6939.285","REF_FRAME":"TEME","PERIAPSIS":"559.927","MEAN_ELEMENT_THEORY":"SGP4","SITE":"AFWTR","MEAN_MOTION":"15.01864106","ECCENTRICITY":"0.00017630","FILE":"3935891","INCLINATION":"97.6530","EPOCH":"2023-06-17T13:52:06.935520","CENTER_NAME":"EARTH","APOAPSIS":"562.374","CLASSIFICATION_TYPE":"U","MEAN_ANOMALY":"271.9928","REV_AT_EPOCH":"868","PERIOD":"95.881","TLE_LINE2":"2 56352  97.6530 169.6854 0001763  88.1498 271.9928 15.01864106  8689","MEAN_MOTION_DOT":"-0.00108589","ARG_OF_PERICENTER":"88.1498","NORAD_CAT_ID":"56352","BSTAR":"-0.00844490000000","OBJECT_TYPE":"PAYLOAD"},{"REV_AT_EPOCH":"130","MEAN_ANOMALY":"39.3983","CLASSIFICATION_TYPE":"U","APOAPSIS":"564.208","INCLINATION":"97.6533","FILE":"3935891","EPOCH":"2023-06-17T22:00:01.999584","CENTER_NAME":"EARTH","ECCENTRICITY":"0.00016690","SITE":"AFWTR","MEAN_MOTION":"15.01247773","MEAN_ELEMENT_THEORY":"SGP4","OBJECT_TYPE":"PAYLOAD","NORAD_CAT_ID":"56353","BSTAR":"0.00250040000000","ARG_OF_PERICENTER":"91.5054","TLE_LINE2":"2 56353  97.6533 170.0639 0001669  91.5054  39.3983 15.01247773  1305","MEAN_MOTION_DOT":"0.00032193","PERIOD":"95.920","COUNTRY_CODE":"US","GP_ID":"234175497","MEAN_MOTION_DDOT":"0.0000000000000","EPHEMERIS_TYPE":"0","LAUNCH_DATE":"2023-04-27","TLE_LINE1":"1 56353U 23058AN  23168.91668981  .00032193  00000-0  25004-2 0  9999","TIME_SYSTEM":"UTC","OBJECT_NAME":"STARLINK-5874","PERIAPSIS":"561.891","REF_FRAME":"TEME","OBJECT_ID":"2023-058AN","RA_OF_ASC_NODE":"170.0639","SEMIMAJOR_AXIS":"6941.185","RCS_SIZE":"LARGE","DECAY_DATE":null,"ELEMENT_SET_NO":"999"},{"PERIOD":"95.875","OBJECT_TYPE":"PAYLOAD","NORAD_CAT_ID":"56354","BSTAR":"-0.00816750000000","ARG_OF_PERICENTER":"83.9017","TLE_LINE2":"2 56354  97.6512 169.6886 0001063  83.9017 276.2328 15.01948613  8687","MEAN_MOTION_DOT":"-0.00105302","ECCENTRICITY":"0.00010630","SITE":"AFWTR","MEAN_MOTION":"15.01948613","MEAN_ELEMENT_THEORY":"SGP4","REV_AT_EPOCH":"868","CLASSIFICATION_TYPE":"U","MEAN_ANOMALY":"276.2328","APOAPSIS":"561.628","FILE":"3935891","INCLINATION":"97.6512","CENTER_NAME":"EARTH","EPOCH":"2023-06-17T13:46:58.261152","RA_OF_ASC_NODE":"169.6886","OBJECT_ID":"2023-058AP","SEMIMAJOR_AXIS":"6939.025","RCS_SIZE":"LARGE","DECAY_DATE":null,"ELEMENT_SET_NO":"999","PERIAPSIS":"560.152","REF_FRAME":"TEME","TLE_LINE1":"1 56354U 23058AP  23168.57428543 -.00105302  00000-0 -81675-2 0  9991","TIME_SYSTEM":"UTC","OBJECT_NAME":"STARLINK-5877","COUNTRY_CODE":"US","GP_ID":"234175856","MEAN_MOTION_DDOT":"0.0000000000000","EPHEMERIS_TYPE":"0","LAUNCH_DATE":"2023-04-27"},{"PERIAPSIS":"561.748","REF_FRAME":"TEME","RA_OF_ASC_NODE":"170.0463","OBJECT_ID":"2023-058AQ","SEMIMAJOR_AXIS":"6941.205","ELEMENT_SET_NO":"999","RCS_SIZE":"LARGE","DECAY_DATE":null,"GP_ID":"234175796","COUNTRY_CODE":"US","LAUNCH_DATE":"2023-04-27","MEAN_MOTION_DDOT":"0.0000000000000","EPHEMERIS_TYPE":"0","TLE_LINE1":"1 56355U 23058AQ  23168.91668981  .00041781  00000-0  32398-2 0  9998","OBJECT_NAME":"STARLINK-5533","TIME_SYSTEM":"UTC","NORAD_CAT_ID":"56355","BSTAR":"0.00323980000000","OBJECT_TYPE":"PAYLOAD","TLE_LINE2":"2 56355  97.6522 170.0463 0001904  88.2874   2.5967 15.01241287  1303","MEAN_MOTION_DOT":"0.00041781","ARG_OF_PERICENTER":"88.2874","PERIOD":"95.921","MEAN_ANOMALY":"2.5967","CLASSIFICATION_TYPE":"U","REV_AT_EPOCH":"130","INCLINATION":"97.6522","FILE":"3935891","EPOCH":"2023-06-17T22:00:01.999584","CENTER_NAME":"EARTH","APOAPSIS":"564.391","ECCENTRICITY":"0.00019040","MEAN_ELEMENT_THEORY":"SGP4","SITE":"AFWTR","MEAN_MOTION":"15.01241287"},{"ARG_OF_PERICENTER":"91.2550","MEAN_MOTION_DOT":"-0.00054055","TLE_LINE2":"2 56356  97.6521 169.7125 0001557  91.2550 349.1777 15.01290439  8198","OBJECT_TYPE":"PAYLOAD","BSTAR":"-0.00423280000000","NORAD_CAT_ID":"56356","PERIOD":"95.917","APOAPSIS":"563.999","EPOCH":"2023-06-17T14:00:01.000224","CENTER_NAME":"EARTH","FILE":"3935401","INCLINATION":"97.6521","REV_AT_EPOCH":"819","CLASSIFICATION_TYPE":"U","MEAN_ANOMALY":"349.1777","SITE":"AFWTR","MEAN_MOTION":"15.01290439","MEAN_ELEMENT_THEORY":"SGP4","ECCENTRICITY":"0.00015570","REF_FRAME":"TEME","PERIAPSIS":"561.837","DECAY_DATE":null,"RCS_SIZE":"LARGE","ELEMENT_SET_NO":"999","SEMIMAJOR_AXIS":"6941.053","OBJECT_ID":"2023-058AR","RA_OF_ASC_NODE":"169.7125","EPHEMERIS_TYPE":"0","MEAN_MOTION_DDOT":"0.0000000000000","LAUNCH_DATE":"2023-04-27","COUNTRY_CODE":"US","GP_ID":"234109931","TIME_SYSTEM":"UTC","OBJECT_NAME":"STARLINK-5535","TLE_LINE1":"1 56356U 23058AR  23168.58334491 -.00054055  00000-0 -42328-2 0  9992"},{"ARG_OF_PERICENTER":"86.6066","TLE_LINE2":"2 56357  97.6521 170.0458 0001825  86.6066   2.9432 15.01225878  1304","MEAN_MOTION_DOT":"0.00062598","OBJECT_TYPE":"PAYLOAD","BSTAR":"0.00483940000000","NORAD_CAT_ID":"56357","PERIOD":"95.922","APOAPSIS":"564.384","EPOCH":"2023-06-17T22:00:01.999584","CENTER_NAME":"EARTH","INCLINATION":"97.6521","FILE":"3935891","REV_AT_EPOCH":"130","CLASSIFICATION_TYPE":"U","MEAN_ANOMALY":"2.9432","SITE":"AFWTR","MEAN_MOTION":"15.01225878","MEAN_ELEMENT_THEORY":"SGP4","ECCENTRICITY":"0.00018250","REF_FRAME":"TEME","PERIAPSIS":"561.850","DECAY_DATE":null,"RCS_SIZE":"LARGE","ELEMENT_SET_NO":"999","SEMIMAJOR_AXIS":"6941.252","OBJECT_ID":"2023-058AS","RA_OF_ASC_NODE":"170.0458","EPHEMERIS_TYPE":"0","MEAN_MOTION_DDOT":"0.0000000000000","LAUNCH_DATE":"2023-04-27","COUNTRY_CODE":"US","GP_ID":"234175736","TIME_SYSTEM":"UTC","OBJECT_NAME":"STARLINK-5538","TLE_LINE1":"1 56357U 23058AS  23168.91668981  .00062598  00000-0  48394-2 0  9992"}];
